CCSDS_OMM_VERS = 2.0
CREATION_DATE  = 
ORIGINATOR     = 

OBJECT_NAME    = ALOS (DAICHI)
OBJECT_ID      = 2006-002A
CENTER_NAME    = EARTH
REF_FRAME      = TEME
TIME_SYSTEM    = UTC
MEAN_ELEMENT_THEORY = SGP/SGP4

EPOCH          = 2026-02-15T20:29:38.154048
MEAN_MOTION    = 14.69736211
ECCENTRICITY   = .00018252
INCLINATION    = 98.1182
RA_OF_ASC_NODE = 2.9255
ARG_OF_PERICENTER = 58.3346
MEAN_ANOMALY   = 301.8037

EPHEMERIS_TYPE = 0
CLASSIFICATION_TYPE = U
NORAD_CAT_ID   = 28931
ELEMENT_SET_NO = 999
REV_AT_EPOCH   = 7027
BSTAR          = .26770539E-3
MEAN_MOTION_DOT = .1546E-4
MEAN_MOTION_DDOT = 0

CCSDS_OMM_VERS = 2.0
CREATION_DATE  = 
ORIGINATOR     = 

OBJECT_NAME    = H-2A R/B
OBJECT_ID      = 2006-002B
CENTER_NAME    = EARTH
REF_FRAME      = TEME
TIME_SYSTEM    = UTC
MEAN_ELEMENT_THEORY = SGP/SGP4

EPOCH          = 2026-02-15T19:55:27.653088
MEAN_MOTION    = 15.15959091
ECCENTRICITY   = .00523404
INCLINATION    = 98.2368
RA_OF_ASC_NODE = 191.9892
ARG_OF_PERICENTER = 316.5235
MEAN_ANOMALY   = 43.1874

EPHEMERIS_TYPE = 0
CLASSIFICATION_TYPE = U
NORAD_CAT_ID   = 28932
ELEMENT_SET_NO = 999
REV_AT_EPOCH   = 9112
BSTAR          = .46622396E-3
MEAN_MOTION_DOT = .9183E-4
MEAN_MOTION_DDOT = 0

CCSDS_OMM_VERS = 2.0
CREATION_DATE  = 
ORIGINATOR     = 

OBJECT_NAME    = RESURS-DK 1
OBJECT_ID      = 2006-021A
CENTER_NAME    = EARTH
REF_FRAME      = TEME
TIME_SYSTEM    = UTC
MEAN_ELEMENT_THEORY = SGP/SGP4

EPOCH          = 2026-02-15T20:17:52.674720
MEAN_MOTION    = 15.12615013
ECCENTRICITY   = .00038178
INCLINATION    = 69.9335
RA_OF_ASC_NODE = 293.5253
ARG_OF_PERICENTER = 193.4904
MEAN_ANOMALY   = 166.6161

EPHEMERIS_TYPE = 0
CLASSIFICATION_TYPE = U
NORAD_CAT_ID   = 29228
ELEMENT_SET_NO = 999
REV_AT_EPOCH   = 8422
BSTAR          = .14413779E-3
MEAN_MOTION_DOT = .2416E-4
MEAN_MOTION_DDOT = 0

CCSDS_OMM_VERS = 2.0
CREATION_DATE  = 
ORIGINATOR     = 

OBJECT_NAME    = CZ-4B R/B
OBJECT_ID      = 2006-046C
CENTER_NAME    = EARTH
REF_FRAME      = TEME
TIME_SYSTEM    = UTC
MEAN_ELEMENT_THEORY = SGP/SGP4

EPOCH          = 2026-02-15T13:47:49.997472
MEAN_MOTION    = 15.16663288
ECCENTRICITY   = .0032949
INCLINATION    = 97.5641
RA_OF_ASC_NODE = 91.5419
ARG_OF_PERICENTER = 347.0379
MEAN_ANOMALY   = 13.0003

EPHEMERIS_TYPE = 0
CLASSIFICATION_TYPE = U
NORAD_CAT_ID   = 29507
ELEMENT_SET_NO = 999
REV_AT_EPOCH   = 5669
BSTAR          = .27047E-3
MEAN_MOTION_DOT = .5296E-4
MEAN_MOTION_DDOT = 0

CCSDS_OMM_VERS = 2.0
CREATION_DATE  = 
ORIGINATOR     = 

OBJECT_NAME    = CZ-2C R/B
OBJECT_ID      = 2007-010B
CENTER_NAME    = EARTH
REF_FRAME      = TEME
TIME_SYSTEM    = UTC
MEAN_ELEMENT_THEORY = SGP/SGP4

EPOCH          = 2026-02-15T19:34:51.142944
MEAN_MOTION    = 14.20238450
ECCENTRICITY   = .00588394
INCLINATION    = 98.3971
RA_OF_ASC_NODE = 161.1925
ARG_OF_PERICENTER = 359.0270
MEAN_ANOMALY   = 1.0784

EPHEMERIS_TYPE = 0
CLASSIFICATION_TYPE = U
NORAD_CAT_ID   = 31114
ELEMENT_SET_NO = 999
REV_AT_EPOCH   = 97661
BSTAR          = .7510984E-4
MEAN_MOTION_DOT = .122E-5
MEAN_MOTION_DDOT = 0

CCSDS_OMM_VERS = 2.0
CREATION_DATE  = 
ORIGINATOR     = 

OBJECT_NAME    = COSMO-SKYMED 1
OBJECT_ID      = 2007-023A
CENTER_NAME    = EARTH
REF_FRAME      = TEME
TIME_SYSTEM    = UTC
MEAN_ELEMENT_THEORY = SGP/SGP4

EPOCH          = 2026-02-15T22:23:19.808160
MEAN_MOTION    = 14.96358495
ECCENTRICITY   = .00012718
INCLINATION    = 97.8853
RA_OF_ASC_NODE = 237.7933
ARG_OF_PERICENTER = 94.5536
MEAN_ANOMALY   = 265.5830

EPHEMERIS_TYPE = 0
CLASSIFICATION_TYPE = U
NORAD_CAT_ID   = 31598
ELEMENT_SET_NO = 999
REV_AT_EPOCH   = 1165
BSTAR          = .39802082E-3
MEAN_MOTION_DOT = .4447E-4
MEAN_MOTION_DDOT = 0

CCSDS_OMM_VERS = 2.0
CREATION_DATE  = 
ORIGINATOR     = 

OBJECT_NAME    = COSMOS 2428
OBJECT_ID      = 2007-029A
CENTER_NAME    = EARTH
REF_FRAME      = TEME
TIME_SYSTEM    = UTC
MEAN_ELEMENT_THEORY = SGP/SGP4

EPOCH          = 2026-02-15T22:36:44.747712
MEAN_MOTION    = 14.12937637
ECCENTRICITY   = .00078468
INCLINATION    = 70.9399
RA_OF_ASC_NODE = 248.9940
ARG_OF_PERICENTER = 301.6985
MEAN_ANOMALY   = 58.3370

EPHEMERIS_TYPE = 0
CLASSIFICATION_TYPE = U
NORAD_CAT_ID   = 31792
ELEMENT_SET_NO = 999
REV_AT_EPOCH   = 96102
BSTAR          = .16598765E-3
MEAN_MOTION_DOT = .261E-5
MEAN_MOTION_DDOT = 0

CCSDS_OMM_VERS = 2.0
CREATION_DATE  = 
ORIGINATOR     = 

OBJECT_NAME    = SL-16 R/B
OBJECT_ID      = 2007-029B
CENTER_NAME    = EARTH
REF_FRAME      = TEME
TIME_SYSTEM    = UTC
MEAN_ELEMENT_THEORY = SGP/SGP4

EPOCH          = 2026-02-15T22:46:53.437440
MEAN_MOTION    = 14.14836202
ECCENTRICITY   = .00022676
INCLINATION    = 70.9743
RA_OF_ASC_NODE = 218.0822
ARG_OF_PERICENTER = 282.7261
MEAN_ANOMALY   = 239.9596

EPHEMERIS_TYPE = 0
CLASSIFICATION_TYPE = U
NORAD_CAT_ID   = 31793
ELEMENT_SET_NO = 999
REV_AT_EPOCH   = 96229
BSTAR          = .72088464E-4
MEAN_MOTION_DOT = .91E-6
MEAN_MOTION_DDOT = 0

CCSDS_OMM_VERS = 2.0
CREATION_DATE  = 
ORIGINATOR     = 

OBJECT_NAME    = KORONAS-FOTON
OBJECT_ID      = 2009-003A
CENTER_NAME    = EARTH
REF_FRAME      = TEME
TIME_SYSTEM    = UTC
MEAN_ELEMENT_THEORY = SGP/SGP4

EPOCH          = 2026-02-15T18:43:24.711168
MEAN_MOTION    = 15.42743893
ECCENTRICITY   = .00092096
INCLINATION    = 82.4314
RA_OF_ASC_NODE = 298.6457
ARG_OF_PERICENTER = 231.0260
MEAN_ANOMALY   = 129.0167

EPHEMERIS_TYPE = 0
CLASSIFICATION_TYPE = U
NORAD_CAT_ID   = 33504
ELEMENT_SET_NO = 999
REV_AT_EPOCH   = 94236
BSTAR          = .32635661E-3
MEAN_MOTION_DOT = .1432E-3
MEAN_MOTION_DDOT = 0

CCSDS_OMM_VERS = 2.0
CREATION_DATE  = 
ORIGINATOR     = 

OBJECT_NAME    = CZ-2C R/B
OBJECT_ID      = 2011-030B
CENTER_NAME    = EARTH
REF_FRAME      = TEME
TIME_SYSTEM    = UTC
MEAN_ELEMENT_THEORY = SGP/SGP4

EPOCH          = 2026-02-15T20:35:18.313440
MEAN_MOTION    = 14.81134580
ECCENTRICITY   = .00540982
INCLINATION    = 97.8508
RA_OF_ASC_NODE = 4.5659
ARG_OF_PERICENTER = 62.1441
MEAN_ANOMALY   = 352.1633

EPHEMERIS_TYPE = 0
CLASSIFICATION_TYPE = U
NORAD_CAT_ID   = 37731
ELEMENT_SET_NO = 999
REV_AT_EPOCH   = 78686
BSTAR          = .22491675E-3
MEAN_MOTION_DOT = .1738E-4
MEAN_MOTION_DDOT = 0

CCSDS_OMM_VERS = 2.0
CREATION_DATE  = 
ORIGINATOR     = 

OBJECT_NAME    = H-2A R/B
OBJECT_ID      = 2012-025E
CENTER_NAME    = EARTH
REF_FRAME      = TEME
TIME_SYSTEM    = UTC
MEAN_ELEMENT_THEORY = SGP/SGP4

EPOCH          = 2026-02-15T20:14:29.771232
MEAN_MOTION    = 14.94969769
ECCENTRICITY   = .00453833
INCLINATION    = 98.4689
RA_OF_ASC_NODE = 12.1510
ARG_OF_PERICENTER = 26.2421
MEAN_ANOMALY   = 334.1083

EPHEMERIS_TYPE = 0
CLASSIFICATION_TYPE = U
NORAD_CAT_ID   = 38341
ELEMENT_SET_NO = 999
REV_AT_EPOCH   = 74495
BSTAR          = .4235739E-3
MEAN_MOTION_DOT = .4655E-4
MEAN_MOTION_DDOT = 0

CCSDS_OMM_VERS = 2.0
CREATION_DATE  = 
ORIGINATOR     = 

OBJECT_NAME    = SHIJIAN-16 (SJ-16)
OBJECT_ID      = 2013-057A
CENTER_NAME    = EARTH
REF_FRAME      = TEME
TIME_SYSTEM    = UTC
MEAN_ELEMENT_THEORY = SGP/SGP4

EPOCH          = 2026-02-15T21:47:00.132288
MEAN_MOTION    = 14.92255558
ECCENTRICITY   = .00165247
INCLINATION    = 74.9698
RA_OF_ASC_NODE = 226.3208
ARG_OF_PERICENTER = 167.2592
MEAN_ANOMALY   = 192.9017

EPHEMERIS_TYPE = 0
CLASSIFICATION_TYPE = U
NORAD_CAT_ID   = 39358
ELEMENT_SET_NO = 999
REV_AT_EPOCH   = 66825
BSTAR          = .87697717E-4
MEAN_MOTION_DOT = .868E-5
MEAN_MOTION_DDOT = 0

