ALOS (DAICHI)           
1 28931U 06002A   26046.85391382  .00001546  00000+0  26771-3 0  9999
2 28931  98.1182   2.9255 0001825  58.3346 301.8037 14.69736211 70270
H-2A R/B                
1 28932U 06002B   26046.83018117  .00009183  00000+0  46622-3 0  9992
2 28932  98.2368 191.9892 0052340 316.5235  43.1874 15.15959091 91125
RESURS-DK 1             
1 29228U 06021A   26046.84574855  .00002416  00000+0  14414-3 0  9995
2 29228  69.9335 293.5253 0003817 193.4904 166.6161 15.12615013 84226
CZ-4B R/B               
1 29507U 06046C   26046.57488423  .00005296  00000+0  27047-3 0  9992
2 29507  97.5641  91.5419 0032949 347.0379  13.0003 15.16663288 56695
CZ-2C R/B               
1 31114U 07010B   26046.81586971  .00000122  00000+0  75110-4 0  9993
2 31114  98.3971 161.1925 0058839 359.0270   1.0784 14.20238450976611
COSMO-SKYMED 1          
1 31598U 07023A   26046.93286815  .00004447  00000+0  39802-3 0  9991
2 31598  97.8853 237.7933 0001271  94.5536 265.5830 14.96358495 11651
COSMOS 2428             
1 31792U 07029A   26046.94218458  .00000261  00000+0  16599-3 0  9990
2 31792  70.9399 248.9940 0007846 301.6985  58.3370 14.12937637961021
SL-16 R/B               
1 31793U 07029B   26046.94922960  .00000091  00000+0  72088-4 0  9998
2 31793  70.9743 218.0822 0002267 282.7261 239.9596 14.14836202962295
KORONAS-FOTON           
1 33504U 09003A   26046.78014712  .00014320  00000+0  32636-3 0  9997
2 33504  82.4314 298.6457 0009209 231.0260 129.0167 15.42743893942360
CZ-2C R/B               
1 37731U 11030B   26046.85785085  .00001738  00000+0  22492-3 0  9990
2 37731  97.8508   4.5659 0054098  62.1441 352.1633 14.81134580786866
H-2A R/B                
1 38341U 12025E   26046.84340013  .00004655  00000+0  42357-3 0  9993
2 38341  98.4689  12.1510 0045383  26.2421 334.1083 14.94969769744950
SHIJIAN-16 (SJ-16)      
1 39358U 13057A   26046.90764042  .00000868  00000+0  87698-4 0  9997
2 39358  74.9698 226.3208 0016524 167.2592 192.9017 14.92255558668258
